{"type": "FeatureCollection", "features": [ {"type": "Feature", "properties": {"norad_id": 40534, "name": "GPS BIIF-9  (PRN 26)", "group": "gps-ops", "lat": 9.078211693178398, "lon": 25.049984381597373, "alt_km": 20362.901194467806, "timestamp": "2025-12-12T07:43:20.772307+00:00", "meta": {"OBJECT_NAME": "GPS BIIF-9  (PRN 26)", "OBJECT_ID": "2015-013A", "EPOCH": "2025-12-11T14:12:34.875648", "MEAN_MOTION": 2.00562655, "ECCENTRICITY": 0.01070076, "INCLINATION": 53.1979, "RA_OF_ASC_NODE": 211.9377, "ARG_OF_PERICENTER": 38.4526, "MEAN_ANOMALY": 322.3807, "EPHEMERIS_TYPE": 0, "CLASSIFICATION_TYPE": "U", "NORAD_CAT_ID": 40534, "ELEMENT_SET_NO": 999, "REV_AT_EPOCH": 7806, "BSTAR": 0, "MEAN_MOTION_DOT": 2.2e-07, "MEAN_MOTION_DDOT": 0}, "tle": {"line1": "1 40534U 15013A   25345.59207032  .00000022  00000+0  00000+0 0  9995", "line2": "2 40534  53.1979 211.9377 0107007  38.4526 322.3807  2.00562655 78062"}}, "geometry": {"type": "Point", "coordinates": [25.049984381597373, 9.078211693178398]}}, {"type": "Feature", "properties": {"norad_id": 40730, "name": "GPS BIIF-10 (PRN 08)", "group": "gps-ops", "lat": 39.37543120678093, "lon": -48.849198966989505, "alt_km": 19909.364580348527, "timestamp": "2025-12-12T07:43:20.772319+00:00", "meta": {"OBJECT_NAME": "GPS BIIF-10 (PRN 08)", "OBJECT_ID": "2015-033A", "EPOCH": "2025-12-11T18:04:53.114592", "MEAN_MOTION": 2.00565636, "ECCENTRICITY": 0.01108926, "INCLINATION": 54.1315, "RA_OF_ASC_NODE": 274.8134, "ARG_OF_PERICENTER": 26.7842, "MEAN_ANOMALY": 333.7997, "EPHEMERIS_TYPE": 0, "CLASSIFICATION_TYPE": "U", "NORAD_CAT_ID": 40730, "ELEMENT_SET_NO": 999, "REV_AT_EPOCH": 7623, "BSTAR": 0, "MEAN_MOTION_DOT": -7.1e-07, "MEAN_MOTION_DDOT": 0}, "tle": {"line1": "1 40730U 15033A   25345.75339253 -.00000071  00000+0  00000+0 0  9999", "line2": "2 40730  54.1315 274.8134 0110892  26.7842 333.7997  2.00565636 76236"}}, "geometry": {"type": "Point", "coordinates": [-48.849198966989505, 39.37543120678093]}}, {"type": "Feature", "properties": {"norad_id": 41019, "name": "GPS BIIF-11 (PRN 10)", "group": "gps-ops", "lat": 6.200784648510808, "lon": 42.10463811787112, "alt_km": 20397.309923480076, "timestamp": "2025-12-12T07:43:20.772330+00:00", "meta": {"OBJECT_NAME": "GPS BIIF-11 (PRN 10)", "OBJECT_ID": "2015-062A", "EPOCH": "2025-12-11T07:32:26.435904", "MEAN_MOTION": 2.00567124, "ECCENTRICITY": 0.01107874, "INCLINATION": 56.8311, "RA_OF_ASC_NODE": 38.0574, "ARG_OF_PERICENTER": 229.9047, "MEAN_ANOMALY": 129.1688, "EPHEMERIS_TYPE": 0, "CLASSIFICATION_TYPE": "U", "NORAD_CAT_ID": 41019, "ELEMENT_SET_NO": 999, "REV_AT_EPOCH": 7406, "BSTAR": 0, "MEAN_MOTION_DOT": -9.3e-07, "MEAN_MOTION_DDOT": 0}, "tle": {"line1": "1 41019U 15062A   25345.31419486 -.00000093  00000+0  00000+0 0  9995", "line2": "2 41019  56.8311  38.0574 0110787 229.9047 129.1688  2.00567124 74064"}}, "geometry": {"type": "Point", "coordinates": [42.10463811787112, 6.200784648510808]}}, {"type": "Feature", "properties": {"norad_id": 41328, "name": "GPS BIIF-12 (PRN 32)", "group": "gps-ops", "lat": -40.47397591049768, "lon": 60.83187269399499, "alt_km": 20080.153384254132, "timestamp": "2025-12-12T07:43:20.772342+00:00", "meta": {"OBJECT_NAME": "GPS BIIF-12 (PRN 32)", "OBJECT_ID": "2016-007A", "EPOCH": "2025-12-10T21:33:15.579936", "MEAN_MOTION": 2.00560768, "ECCENTRICITY": 0.0092092, "INCLINATION": 55.4051, "RA_OF_ASC_NODE": 96.9301, "ARG_OF_PERICENTER": 243.5329, "MEAN_ANOMALY": 115.5097, "EPHEMERIS_TYPE": 0, "CLASSIFICATION_TYPE": "U", "NORAD_CAT_ID": 41328, "ELEMENT_SET_NO": 999, "REV_AT_EPOCH": 7206, "BSTAR": 0, "MEAN_MOTION_DOT": 1e-08, "MEAN_MOTION_DDOT": 0}, "tle": {"line1": "1 41328U 16007A   25344.89809699  .00000001  00000+0  00000+0 0  9997", "line2": "2 41328  55.4051  96.9301 0092092 243.5329 115.5097  2.00560768 72065"}}, "geometry": {"type": "Point", "coordinates": [60.83187269399499, -40.47397591049768]}}, {"type": "Feature", "properties": {"norad_id": 43873, "name": "GPS BIII-1  (PRN 04)", "group": "gps-ops", "lat": -17.797986876712297, "lon": -67.73460496062049, "alt_km": 20087.181693413397, "timestamp": "2025-12-12T07:43:20.772353+00:00", "meta": {"OBJECT_NAME": "GPS BIII-1  (PRN 04)", "OBJECT_ID": "2018-109A", "EPOCH": "2025-12-11T18:46:12.593280", "MEAN_MOTION": 2.00553575, "ECCENTRICITY": 0.00372966, "INCLINATION": 55.5668, "RA_OF_ASC_NODE": 99.5845, "ARG_OF_PERICENTER": 194.9269, "MEAN_ANOMALY": 337.0503, "EPHEMERIS_TYPE": 0, "CLASSIFICATION_TYPE": "U", "NORAD_CAT_ID": 43873, "ELEMENT_SET_NO": 999, "REV_AT_EPOCH": 5131, "BSTAR": 0, "MEAN_MOTION_DOT": 2e-08, "MEAN_MOTION_DDOT": 0}, "tle": {"line1": "1 43873U 18109A   25345.78209020  .00000002  00000+0  00000+0 0  9991", "line2": "2 43873  55.5668  99.5845 0037296 194.9269 337.0503  2.00553575 51312"}}, "geometry": {"type": "Point", "coordinates": [-67.73460496062049, -17.797986876712297]}}, {"type": "Feature", "properties": {"norad_id": 44506, "name": "GPS BIII-2  (PRN 18)", "group": "gps-ops", "lat": 54.90739178848726, "lon": 82.49050682834647, "alt_km": 20202.934099869293, "timestamp": "2025-12-12T07:43:20.772365+00:00", "meta": {"OBJECT_NAME": "GPS BIII-2  (PRN 18)", "OBJECT_ID": "2019-056A", "EPOCH": "2025-12-11T10:12:28.532736", "MEAN_MOTION": 2.00566237, "ECCENTRICITY": 0.00577517, "INCLINATION": 55.7218, "RA_OF_ASC_NODE": 338.6041, "ARG_OF_PERICENTER": 198.4885, "MEAN_ANOMALY": 332.8185, "EPHEMERIS_TYPE": 0, "CLASSIFICATION_TYPE": "U", "NORAD_CAT_ID": 44506, "ELEMENT_SET_NO": 999, "REV_AT_EPOCH": 4630, "BSTAR": 0, "MEAN_MOTION_DOT": -8.7e-07, "MEAN_MOTION_DDOT": 0}, "tle": {"line1": "1 44506U 19056A   25345.42533024 -.00000087  00000+0  00000+0 0  9996", "line2": "2 44506  55.7218 338.6041 0057751 198.4885 332.8185  2.00566237 46306"}}, "geometry": {"type": "Point", "coordinates": [82.49050682834647, 54.90739178848726]}}, {"type": "Feature", "properties": {"norad_id": 45854, "name": "GPS BIII-3  (PRN 23)", "group": "gps-ops", "lat": 34.23630124497844, "lon": 62.932126549013724, "alt_km": 20330.174799955825, "timestamp": "2025-12-12T07:43:20.772376+00:00", "meta": {"OBJECT_NAME": "GPS BIII-3  (PRN 23)", "OBJECT_ID": "2020-041A", "EPOCH": "2025-12-11T05:23:02.925888", "MEAN_MOTION": 2.00561914, "ECCENTRICITY": 0.00604597, "INCLINATION": 56.5461, "RA_OF_ASC_NODE": 36.2442, "ARG_OF_PERICENTER": 203.3747, "MEAN_ANOMALY": 126.9066, "EPHEMERIS_TYPE": 0, "CLASSIFICATION_TYPE": "U", "NORAD_CAT_ID": 45854, "ELEMENT_SET_NO": 999, "REV_AT_EPOCH": 4026, "BSTAR": 0, "MEAN_MOTION_DOT": -9.4e-07, "MEAN_MOTION_DDOT": 0}, "tle": {"line1": "1 45854U 20041A   25345.22433942 -.00000094  00000+0  00000+0 0  9993", "line2": "2 45854  56.5461  36.2442 0060459 203.3747 126.9066  2.00561914 40266"}}, "geometry": {"type": "Point", "coordinates": [62.932126549013724, 34.23630124497844]}}, {"type": "Feature", "properties": {"norad_id": 46826, "name": "GPS BIII-4  (PRN 14)", "group": "gps-ops", "lat": 11.036952082231762, "lon": -133.4914200461592, "alt_km": 20350.103324298907, "timestamp": "2025-12-12T07:43:20.772387+00:00", "meta": {"OBJECT_NAME": "GPS BIII-4  (PRN 14)", "OBJECT_ID": "2020-078A", "EPOCH": "2025-12-11T12:08:25.039104", "MEAN_MOTION": 2.0056681, "ECCENTRICITY": 0.00646308, "INCLINATION": 54.0154, "RA_OF_ASC_NODE": 218.391, "ARG_OF_PERICENTER": 203.3565, "MEAN_ANOMALY": 301.1266, "EPHEMERIS_TYPE": 0, "CLASSIFICATION_TYPE": "U", "NORAD_CAT_ID": 46826, "ELEMENT_SET_NO": 999, "REV_AT_EPOCH": 3774, "BSTAR": 0, "MEAN_MOTION_DOT": 1e-07, "MEAN_MOTION_DDOT": 0}, "tle": {"line1": "1 46826U 20078A   25345.50584536  .00000010  00000+0  00000+0 0  9997", "line2": "2 46826  54.0154 218.3910 0064630 203.3565 301.1266  2.00566810 37742"}}, "geometry": {"type": "Point", "coordinates": [-133.4914200461592, 11.036952082231762]}}, {"type": "Feature", "properties": {"norad_id": 48859, "name": "GPS BIII-5  (PRN 11)", "group": "gps-ops", "lat": -15.417529914100975, "lon": 170.99843211959856, "alt_km": 20131.375836099174, "timestamp": "2025-12-12T07:43:20.772399+00:00", "meta": {"OBJECT_NAME": "GPS BIII-5  (PRN 11)", "OBJECT_ID": "2021-054A", "EPOCH": "2025-12-08T04:14:32.423424", "MEAN_MOTION": 2.00553627, "ECCENTRICITY": 0.0024678, "INCLINATION": 55.2581, "RA_OF_ASC_NODE": 340.1367, "ARG_OF_PERICENTER": 233.3994, "MEAN_ANOMALY": 212.8593, "EPHEMERIS_TYPE": 0, "CLASSIFICATION_TYPE": "U", "NORAD_CAT_ID": 48859, "ELEMENT_SET_NO": 999, "REV_AT_EPOCH": 3292, "BSTAR": 0, "MEAN_MOTION_DOT": -8.6e-07, "MEAN_MOTION_DDOT": 0}, "tle": {"line1": "1 48859U 21054A   25342.17676416 -.00000086  00000+0  00000+0 0  9993", "line2": "2 48859  55.2581 340.1367 0024678 233.3994 212.8593  2.00553627 32922"}}, "geometry": {"type": "Point", "coordinates": [170.99843211959856, -15.417529914100975]}}, {"type": "Feature", "properties": {"norad_id": 55268, "name": "GPS BIII-6  (PRN 28)", "group": "gps-ops", "lat": -46.04429844202066, "lon": 22.241995305467764, "alt_km": 20192.505610415556, "timestamp": "2025-12-12T07:43:20.772410+00:00", "meta": {"OBJECT_NAME": "GPS BIII-6  (PRN 28)", "OBJECT_ID": "2023-009A", "EPOCH": "2025-12-10T05:50:57.225696", "MEAN_MOTION": 2.00555847, "ECCENTRICITY": 0.00036975, "INCLINATION": 55.1051, "RA_OF_ASC_NODE": 155.9432, "ARG_OF_PERICENTER": 357.7706, "MEAN_ANOMALY": 183.2285, "EPHEMERIS_TYPE": 0, "CLASSIFICATION_TYPE": "U", "NORAD_CAT_ID": 55268, "ELEMENT_SET_NO": 999, "REV_AT_EPOCH": 2145, "BSTAR": 0, "MEAN_MOTION_DOT": 7.5e-07, "MEAN_MOTION_DDOT": 0}, "tle": {"line1": "1 55268U 23009A   25344.24371789  .00000075  00000+0  00000+0 0  9999", "line2": "2 55268  55.1051 155.9432 0003697 357.7706 183.2285  2.00555847 21451"}}, "geometry": {"type": "Point", "coordinates": [22.241995305467764, -46.04429844202066]}}]}